( G-Code Modified by G-Code Ripper                        )
( by Scorch - 2013-2024 www.scorchworks.com                    )
G21   (set units to mm)
G90
g54
g61.1
          unutmayalım cpuiso yapılacak.usb cihaz olmaması uygun(klavye mouse wireless ssh power yönetimi gibi)

(G Code)
(PROBEOPEN probe_points.txt)
G0 Z2.000
#499 = -1.500
G0 X0.345Y0.345
G38.2 Z-1.500 F40.0
M73
G4 P0.1
#499= [ [[#500 GE #499]*#500] + [[#500 LT #499]*#499] ]

G0 Z2.000
G0 X4.458Y0.345
G38.2 Z-1.500 F40.0
M73
G4 P0.1
